STARLINK-5581
1 55373U 23013AU  26092.61392431  .00001186  00000+0  85114-4 0  9998
2 55373  43.0017 182.8615 0001072 265.4660  94.6063 15.09922383175160
STARLINK-5588
1 55375U 23013AW  26092.00002315 -.00018893  00000+0 -11349-2 0  9994
2 55375  43.0009 185.6750 0001624 264.7636 232.7303 15.09928582  5714
STARLINK-5572
1 55378U 23013AZ  26092.23738049 -.00004296  00000+0 -24729-3 0  9991
2 55378  43.0019 184.3470 0001500 269.0217  91.0456 15.09929038175113
STARLINK-5705
1 55472U 23015Z   26092.68101896  .00001079  00000+0  78637-4 0  9993
2 55472  43.0014 182.5702 0001017 255.2194 104.8538 15.09923654174510
STARLINK-5688
1 55479U 23015AG  26092.55193291  .00001052  00000+0  76994-4 0  9991
2 55479  43.0028 183.3181 0001656 277.0023  83.0634 15.09925247174496
STARLINK-5016
1 56143U 23046BD  26092.78493030  .00000162  00000+0  23103-4 0  9998
2 56143  43.0036  12.7379 0001694 282.4514  77.6141 15.09921685165860
STARLINK-5869
1 57061U 23088P   26091.96237411  .00000995  00000+0  73567-4 0  9995
2 57061  43.0008 339.8998 0001141 237.0364 123.0371 15.09920424152907
